NORAD_CAT_ID,OBJECT_NAME,OBJECT_TYPE,EPOCH,MEAN_MOTION,ECCENTRICITY,INCLINATION,RA_OF_ASC_NODE,ARG_OF_PERICENTER,MEAN_ANOMALY,BSTAR,MEAN_MOTION_DOT,MEAN_MOTION_DDOT,TLE_LINE0,TLE_LINE1,TLE_LINE2,SEMIMAJOR_AXIS,PERIOD,APOGEE,PERIGEE,DECAYED
51464.0,STARLINK-3189,PAYLOAD,2022-09-15 09:54:54,15.08836372,0.0002173,53.2175,226.1092,40.6698,319.4456,-2.5323e-05,-6.91e-06,0.0,0 STARLINK-3189,1 51464U 22010J   22258.41313313 -.00000691  00000-0 -25323-4 0  9990,2 51464  53.2175 226.1092 0002173  40.6698 319.4456 15.08836372 35400,6917.891,95.438,541.26,538.253,0.0
51464.0,STARLINK-3189,PAYLOAD,2022-09-15 14:41:04,15.0883554,0.0002186,53.2176,225.2175,40.49800000000001,319.6175,4.7695e-05,4.71e-06,0.0,0 STARLINK-3189,1 51464U 22010J   22258.61185407  .00000471  00000-0  47695-4 0  9993,2 51464  53.2176 225.2175 0002186  40.4980 319.6175 15.08835540 35382,6917.894,95.438,541.271,538.247,0.0
51464.0,STARLINK-3189,PAYLOAD,2022-09-16 06:34:55,15.08830442,0.000217,53.2174,222.2445,43.9484,316.168,4.5158e-05,4.3e-06,0.0,0 STARLINK-3189,1 51464U 22010J   22259.27425881  .00000430  00000-0  45158-4 0  9996,2 51464  53.2174 222.2445 0002170  43.9484 316.1680 15.08830442 35533,6917.91,95.438,541.276,538.273,0.0
51464.0,STARLINK-3189,PAYLOAD,2022-09-17 04:50:20,15.08823075,0.0002073,53.2175,218.081,41.7252,318.3898,-5.2435e-05,-1.122e-05,0.0,0 STARLINK-3189,1 51464U 22010J   22260.20162728 -.00001122  00000-0 -52435-4 0  9996,2 51464  53.2175 218.0810 0002073  41.7252 318.3898 15.08823075 35623,6917.932,95.439,541.231,538.363,0.0
51464.0,STARLINK-3189,PAYLOAD,2022-09-17 09:36:30,15.08825106,0.000206,53.2175,217.1889,40.8664,319.2483,-4.1161e-05,-9.43e-06,0.0,0 STARLINK-3189,1 51464U 22010J   22260.40034845 -.00000943  00000-0 -41161-4 0  9990,2 51464  53.2175 217.1889 0002060  40.8664 319.2483 15.08825106 35708,6917.926,95.438,541.216,538.366,0.0
51464.0,STARLINK-3189,PAYLOAD,2022-09-17 20:44:12,15.08829651,0.0002078,53.2175,215.1075,43.5481,316.5675,7.153300000000001e-05,8.5e-06,0.0,0 STARLINK-3189,1 51464U 22010J   22260.86403049  .00000850  00000-0  71533-4 0  9997,2 51464  53.2175 215.1075 0002078  43.5481 316.5675 15.08829651 35778,6917.9119999999975,95.438,541.215,538.339,0.0
51464.0,STARLINK-3189,PAYLOAD,2022-09-18 09:27:17,15.08838615,0.0002158,53.2175,212.7289,46.9031,313.2142,0.00033473,5.043e-05,0.0,0 STARLINK-3189,1 51464U 22010J   22261.39395067  .00005043  00000-0  33473-3 0  9995,2 51464  53.2175 212.7289 0002158  46.9031 313.2142 15.08838615 35802,6917.885,95.438,541.243,538.257,0.0
51464.0,STARLINK-3189,PAYLOAD,2022-09-18 20:34:59,15.08849457,0.0002171999999999,53.217,210.6478,45.6802,314.4368,0.0005246,8.073e-05,0.0,0 STARLINK-3189,1 51464U 22010J   22261.85762793  .00008073  00000-0  52460-3 0  9993,2 51464  53.2170 210.6478 0002172  45.6802 314.4368 15.08849457 35924,6917.851,95.437,541.219,538.214,0.0
51464.0,STARLINK-3189,PAYLOAD,2022-09-19 07:42:40,15.08853153,0.0002159,53.2166,208.5662,46.1608,313.9562,0.00043838,6.698e-05,0.0,0 STARLINK-3189,1 51464U 22010J   22262.32130683  .00006698  00000-0  43838-3 0  9993,2 51464  53.2166 208.5662 0002159  46.1608 313.9562 15.08853153 35990,6917.84,95.437,541.1990000000002,538.212,0.0
51464.0,STARLINK-3189,PAYLOAD,2022-09-20 02:47:18,15.08848319,0.0002195999999999,53.217,204.9979,45.9899,314.1274,0.0001612,2.279e-05,0.0,0 STARLINK-3189,1 51464U 22010J   22263.11618404  .00002279  00000-0  16120-3 0  9998,2 51464  53.2170 204.9979 0002196  45.9899 314.1274 15.08848319 36066,6917.855,95.437,541.239,538.201,0.0
51464.0,STARLINK-3189,PAYLOAD,2022-09-20 07:33:27,15.08848617,0.0002194,53.2171,204.1058,45.4749,314.6422,0.00020018,2.9e-05,0.0,0 STARLINK-3189,1 51464U 22010J   22263.31490338  .00002900  00000-0  20018-3 0  9996,2 51464  53.2171 204.1058 0002194  45.4749 314.6422 15.08848617 36144,6917.854,95.437,541.237,538.201,0.0
51464.0,STARLINK-3189,PAYLOAD,2022-09-21 05:48:51,15.08846173,0.0002189,53.2177,199.9433,47.889,312.2288,-0.00018448,-3.224e-05,0.0,0 STARLINK-3189,1 51464U 22010J   22264.24226346 -.00003224  00000-0 -18448-3 0  9991,2 51464  53.2177 199.9433 0002189  47.8890 312.2288 15.08846173 36234,6917.861999999999,95.437,541.241,538.212,0.0
51464.0,STARLINK-3189,PAYLOAD,2022-09-22 02:28:53,15.08835178,0.0002119,53.2177,196.0778,44.6297,315.4866,3.902e-05,3.33e-06,0.0,0 STARLINK-3189,1 51464U 22010J   22265.10339191  .00000333  00000-0  39020-4 0  9996,2 51464  53.2177 196.0778 0002119  44.6297 315.4866 15.08835178 36367,6917.895,95.438,541.226,538.294,0.0
51464.0,STARLINK-3189,PAYLOAD,2022-09-22 12:01:12,15.08835361,0.0002151999999999,53.2179,194.2937,44.3443,315.7721,3.024e-05,1.93e-06,0.0,0 STARLINK-3189,1 51464U 22010J   22265.50083350  .00000193  00000-0  30240-4 0  9992,2 51464  53.2179 194.2937 0002152  44.3443 315.7721 15.08835361 36472,6917.895,95.438,541.248,538.271,0.0
51464.0,STARLINK-3189,PAYLOAD,2022-09-23 03:55:05,15.08811534,0.0002115,53.2187,191.3209,57.9539,302.1658,0.00011099,1.477e-05,0.0,0 STARLINK-3189,1 51464U 22010J   22266.16325423  .00001477  00000-0  11099-3 0  9991,2 51464  53.2187 191.3209 0002115  57.9539 302.1658 15.08811534 36527,6917.967,95.439,541.2959999999998,538.369,0.0
51464.0,STARLINK-3189,PAYLOAD,2022-09-23 07:05:51,15.08823011,0.0002005999999999,53.2187,190.7261,49.2271,310.8895,-1.8488e-05,-5.82e-06,0.0,0 STARLINK-3189,1 51464U 22010J   22266.29573112 -.00000582  00000-0 -18488-4 0  9993,2 51464  53.2187 190.7261 0002006  49.2271 310.8895 15.08823011 36593,6917.932,95.439,541.185,538.41,0.0
51464.0,STARLINK-3189,PAYLOAD,2022-09-24 03:45:51,15.08839233,0.0002005,53.2186,186.8605,45.2372,314.8783,0.00012821,1.753e-05,0.0,0 STARLINK-3189,1 51464U 22010J   22267.15684441  .00001753  00000-0  12821-3 0  9990,2 51464  53.2186 186.8605 0002005  45.2372 314.8783 15.08839233 36679,6917.8830000000025,95.438,541.135,538.361,0.0
51464.0,STARLINK-3189,PAYLOAD,2022-09-25 11:33:34,15.08840345,0.0002053,53.218,180.9133,46.2962,313.82,0.00015655,2.204e-05,0.0,0 STARLINK-3189,1 51464U 22010J   22268.48164412  .00002204  00000-0  15655-3 0  9998,2 51464  53.2180 180.9133 0002053  46.2962 313.8200 15.08840345 36920,6917.879,95.438,541.165,538.3240000000002,0.0
51464.0,STARLINK-3189,PAYLOAD,2022-09-26 11:24:20,15.08848539,0.0002000999999999,53.2179,176.4525,45.0983,315.0171,0.00010823,1.435e-05,0.0,0 STARLINK-3189,1 51464U 22010J   22269.47523771  .00001435  00000-0  10823-3 0  9992,2 51464  53.2179 176.4525 0002001  45.0983 315.0171 15.08848539 37077,6917.854,95.437,541.104,538.335,0.0
51464.0,STARLINK-3189,PAYLOAD,2022-09-27 03:18:11,15.08849215,0.0002106999999999,53.2185,173.4791,45.1578,314.9585,2.9529e-05,1.82e-06,0.0,0 STARLINK-3189,1 51464U 22010J   22270.13763697  .00000182  00000-0  29529-4 0  9992,2 51464  53.2185 173.4791 0002107  45.1578 314.9585 15.08849215 37129,6917.852,95.437,541.175,538.26,0.0
51464.0,STARLINK-3189,PAYLOAD,2022-09-27 04:53:34,15.08850128,0.0002018,53.2184,173.1818,46.8586,313.2574,4.7327e-05,4.65e-06,0.0,0 STARLINK-3189,1 51464U 22010J   22270.20387620  .00000465  00000-0  47327-4 0  9998,2 51464  53.2184 173.1818 0002018  46.8586 313.2574 15.08850128 37184,6917.849,95.437,541.11,538.318,0.0
51464.0,STARLINK-3189,PAYLOAD,2022-09-28 03:08:58,15.0885727,0.0002049,53.2182,169.0193,42.9889,317.1263,0.00034086,5.143e-05,0.0,0 STARLINK-3189,1 51464U 22010J   22271.13123116  .00005143  00000-0  34086-3 0  9994,2 51464  53.2182 169.0193 0002049  42.9889 317.1263 15.08857270 37328,6917.828,95.436,541.11,538.275,0.0
51464.0,STARLINK-3189,PAYLOAD,2022-09-28 17:27:26,15.08850754,0.0002038,53.2179,166.3435,42.8187,317.2963,0.0001623,2.297e-05,0.0,0 STARLINK-3189,1 51464U 22010J   22271.72739005  .00002297  00000-0  16230-3 0  9997,2 51464  53.2179 166.3435 0002038  42.8187 317.2963 15.08850754 37363,6917.848000000001,95.437,541.122,538.303,0.0
51464.0,STARLINK-3189,PAYLOAD,2022-09-28 20:38:12,15.08850843,0.0002024,53.2178,165.7488,42.9268,317.1882,0.00014577,2.033e-05,0.0,0 STARLINK-3189,1 51464U 22010J   22271.85986901  .00002033  00000-0  14577-3 0  9990,2 51464  53.2178 165.7488 0002024  42.9268 317.1882 15.08850843 37435,6917.847,95.437,541.112,538.312,0.0
51464.0,STARLINK-3189,PAYLOAD,2022-09-29 09:21:17,15.08844763,0.000185,53.2175,163.3675,48.3025,311.8125,7.3588e-05,8.83e-06,0.0,0 STARLINK-3189,1 51464U 22010J   22272.38978933  .00000883  00000-0  73588-4 0  9994,2 51464  53.2175 163.3675 0001850  48.3025 311.8125 15.08844763 37515,6917.866,95.437,541.011,538.451,0.0
51464.0,STARLINK-3189,PAYLOAD,2022-09-29 17:18:13,15.08847443,0.0001955,53.2181,161.8811,42.6394,317.475,-0.00011103,-2.055e-05,0.0,0 STARLINK-3189,1 51464U 22010J   22272.72098654 -.00002055  00000-0 -11103-3 0  9994,2 51464  53.2181 161.8811 0001955  42.6394 317.4750 15.08847443 37568,6917.858,95.437,541.075,538.37,0.0
51464.0,STARLINK-3189,PAYLOAD,2022-09-30 02:50:32,15.08840754,0.0002141,53.2192,160.0978,37.6953,322.4189,-4.8131e-05,-1.054e-05,0.0,0 STARLINK-3189,1 51464U 22010J   22273.11843420 -.00001054  00000-0 -48131-4 0  9997,2 51464  53.2192 160.0978 0002141  37.6953 322.4189 15.08840754 37579,6917.878000000002,95.438,541.224,538.262,0.0
51464.0,STARLINK-3189,PAYLOAD,2022-09-30 09:12:04,15.08847037,0.0002029,53.219,158.9087,40.2038,319.9104,1.7326e-05,-1.2e-07,0.0,0 STARLINK-3189,1 51464U 22010J   22273.38338746 -.00000012  00000-0  17326-4 0  9990,2 51464  53.2190 158.9087 0002029  40.2038 319.9104 15.08847037 37662,6917.859,95.437,541.128,538.32,0.0
51464.0,STARLINK-3189,PAYLOAD,2022-09-30 17:09:00,15.08842881,0.0001879,53.2194,157.4229,45.9031,314.2115,4.667e-05,4.55e-06,0.0,0 STARLINK-3189,1 51464U 22010J   22273.71458936  .00000455  00000-0  46670-4 0  9995,2 51464  53.2194 157.4229 0001879  45.9031 314.2115 15.08842881 37713,6917.871999999999,95.437,541.036,538.437,0.0
